{
  "type": "FeatureCollection",
  "features": [
    {
      "type": "Feature",
      "properties": {
        "norad_id": 34316,
        "name": "COSMOS 2251 DEB",
        "group": "cosmos-2251-debris",
        "lat": -60.30629652116096,
        "lon": 156.668312771898,
        "alt_km": 602.5542265265549,
        "timestamp": "2025-12-27T20:30:59.673947+00:00",
        "meta_object_name": "COSMOS 2251 DEB",
        "meta_object_id": "1993-036NN",
        "meta_epoch": "2025-12-27T03:20:06.137088",
        "meta_mean_motion": 14.92314691,
        "meta_eccentricity": 0.00092359,
        "meta_inclination": 74.0652,
        "meta_ra_of_asc_node": 308.0347,
        "meta_arg_of_pericenter": 29.2935,
        "meta_mean_anomaly": 330.8763,
        "meta_ephemeris_type": 0,
        "meta_classification_type": "U",
        "meta_norad_cat_id": 34316,
        "meta_element_set_no": 999,
        "meta_rev_at_epoch": 89424,
        "meta_bstar": 0.0024156886,
        "meta_mean_motion_dot": 0.00024759,
        "meta_mean_motion_ddot": 0,
        "tle_line1": "1 34316U 93036NN  25361.13895992  .00024759  00000+0  24157-2 0  9998",
        "tle_line2": "2 34316  74.0652 308.0347 0009235  29.2935 330.8763 14.92314691894244"
      },
      "geometry": {
        "type": "Point",
        "coordinates": [
          156.668312771898,
          -60.30629652116096
        ]
      }
    },
    {
      "type": "Feature",
      "properties": {
        "norad_id": 34317,
        "name": "COSMOS 2251 DEB",
        "group": "cosmos-2251-debris",
        "lat": -67.18427076006918,
        "lon": -32.39593427298985,
        "alt_km": 934.5431471559823,
        "timestamp": "2025-12-27T20:30:59.673958+00:00",
        "meta_object_name": "COSMOS 2251 DEB",
        "meta_object_id": "1993-036NP",
        "meta_epoch": "2025-12-27T01:48:08.563104",
        "meta_mean_motion": 13.65142089,
        "meta_eccentricity": 0.03370463,
        "meta_inclination": 73.9242,
        "meta_ra_of_asc_node": 12.1572,
        "meta_arg_of_pericenter": 358.6629,
        "meta_mean_anomaly": 60.6871,
        "meta_ephemeris_type": 0,
        "meta_classification_type": "U",
        "meta_norad_cat_id": 34317,
        "meta_element_set_no": 999,
        "meta_rev_at_epoch": 83815,
        "meta_bstar": 0.00080027012,
        "meta_mean_motion_dot": 9.33e-06,
        "meta_mean_motion_ddot": 0,
        "tle_line1": "1 34317U 93036NP  25361.07509911  .00000933  00000+0  80027-3 0  9992",
        "tle_line2": "2 34317  73.9242  12.1572 0337046 358.6629  60.6871 13.65142089838159"
      },
      "geometry": {
        "type": "Point",
        "coordinates": [
          -32.39593427298985,
          -67.18427076006918
        ]
      }
    },
    {
      "type": "Feature",
      "properties": {
        "norad_id": 34321,
        "name": "COSMOS 2251 DEB",
        "group": "cosmos-2251-debris",
        "lat": -73.89760031043312,
        "lon": 45.19003661988137,
        "alt_km": 721.2144065653565,
        "timestamp": "2025-12-27T20:30:59.673968+00:00",
        "meta_object_name": "COSMOS 2251 DEB",
        "meta_object_id": "1993-036NT",
        "meta_epoch": "2025-12-27T11:17:02.249088",
        "meta_mean_motion": 14.50121818,
        "meta_eccentricity": 0.0016039,
        "meta_inclination": 74.0289,
        "meta_ra_of_asc_node": 128.6855,
        "meta_arg_of_pericenter": 257.4882,
        "meta_mean_anomaly": 167.0205,
        "meta_ephemeris_type": 0,
        "meta_classification_type": "U",
        "meta_norad_cat_id": 34321,
        "meta_element_set_no": 999,
        "meta_rev_at_epoch": 88700,
        "meta_bstar": 0.000715,
        "meta_mean_motion_dot": 2.754e-05,
        "meta_mean_motion_ddot": 0,
        "tle_line1": "1 34321U 93036NT  25361.47016492  .00002754  00000+0  71500-3 0  9997",
        "tle_line2": "2 34321  74.0289 128.6855 0016039 257.4882 167.0205 14.50121818887000"
      },
      "geometry": {
        "type": "Point",
        "coordinates": [
          45.19003661988137,
          -73.89760031043312
        ]
      }
    },
    {
      "type": "Feature",
      "properties": {
        "norad_id": 34323,
        "name": "COSMOS 2251 DEB",
        "group": "cosmos-2251-debris",
        "lat": -3.7680449368066227,
        "lon": -85.47258800696994,
        "alt_km": 622.9011446914656,
        "timestamp": "2025-12-27T20:30:59.673978+00:00",
        "meta_object_name": "COSMOS 2251 DEB",
        "meta_object_id": "1993-036NV",
        "meta_epoch": "2025-12-27T08:37:41.955168",
        "meta_mean_motion": 14.74876094,
        "meta_eccentricity": 0.0056921,
        "meta_inclination": 73.9525,
        "meta_ra_of_asc_node": 94.4136,
        "meta_arg_of_pericenter": 134.6893,
        "meta_mean_anomaly": 299.6337,
        "meta_ephemeris_type": 0,
        "meta_classification_type": "U",
        "meta_norad_cat_id": 34323,
        "meta_element_set_no": 999,
        "meta_rev_at_epoch": 88655,
        "meta_bstar": 0.0023707,
        "meta_mean_motion_dot": 0.00016331,
        "meta_mean_motion_ddot": 0,
        "tle_line1": "1 34323U 93036NV  25361.35951337  .00016331  00000+0  23707-2 0  9993",
        "tle_line2": "2 34323  73.9525  94.4136 0056921 134.6893 299.6337 14.74876094886553"
      },
      "geometry": {
        "type": "Point",
        "coordinates": [
          -85.47258800696994,
          -3.7680449368066227
        ]
      }
    },
    {
      "type": "Feature",
      "properties": {
        "norad_id": 34325,
        "name": "COSMOS 2251 DEB",
        "group": "cosmos-2251-debris",
        "lat": -5.383044929898309,
        "lon": -12.264380896334506,
        "alt_km": 742.9184193422034,
        "timestamp": "2025-12-27T20:30:59.673989+00:00",
        "meta_object_name": "COSMOS 2251 DEB",
        "meta_object_id": "1993-036NX",
        "meta_epoch": "2025-12-26T22:08:23.930016",
        "meta_mean_motion": 14.04568575,
        "meta_eccentricity": 0.0191234,
        "meta_inclination": 73.8709,
        "meta_ra_of_asc_node": 167.8156,
        "meta_arg_of_pericenter": 182.5258,
        "meta_mean_anomaly": 330.1691,
        "meta_ephemeris_type": 0,
        "meta_classification_type": "U",
        "meta_norad_cat_id": 34325,
        "meta_element_set_no": 999,
        "meta_rev_at_epoch": 85714,
        "meta_bstar": 0.0024998,
        "meta_mean_motion_dot": 4.678e-05,
        "meta_mean_motion_ddot": 0,
        "tle_line1": "1 34325U 93036NX  25360.92249919  .00004678  00000+0  24998-2 0  9997",
        "tle_line2": "2 34325  73.8709 167.8156 0191234 182.5258 330.1691 14.04568575857141"
      },
      "geometry": {
        "type": "Point",
        "coordinates": [
          -12.264380896334506,
          -5.383044929898309
        ]
      }
    },
    {
      "type": "Feature",
      "properties": {
        "norad_id": 34327,
        "name": "COSMOS 2251 DEB",
        "group": "cosmos-2251-debris",
        "lat": -63.28123874719611,
        "lon": 106.82346438139695,
        "alt_km": 584.4984139711796,
        "timestamp": "2025-12-27T20:30:59.673999+00:00",
        "meta_object_name": "COSMOS 2251 DEB",
        "meta_object_id": "1993-036NZ",
        "meta_epoch": "2025-12-27T09:49:48.156096",
        "meta_mean_motion": 14.89526599,
        "meta_eccentricity": 0.00339,
        "meta_inclination": 73.9937,
        "meta_ra_of_asc_node": 142.486,
        "meta_arg_of_pericenter": 316.1631,
        "meta_mean_anomaly": 109.0263,
        "meta_ephemeris_type": 0,
        "meta_classification_type": "U",
        "meta_norad_cat_id": 34327,
        "meta_element_set_no": 999,
        "meta_rev_at_epoch": 89726,
        "meta_bstar": 0.0015743,
        "meta_mean_motion_dot": 0.00015164,
        "meta_mean_motion_ddot": 0,
        "tle_line1": "1 34327U 93036NZ  25361.40958514  .00015164  00000+0  15743-2 0  9991",
        "tle_line2": "2 34327  73.9937 142.4860 0033900 316.1631 109.0263 14.89526599897261"
      },
      "geometry": {
        "type": "Point",
        "coordinates": [
          106.82346438139695,
          -63.28123874719611
        ]
      }
    },
    {
      "type": "Feature",
      "properties": {
        "norad_id": 34340,
        "name": "COSMOS 2251 DEB",
        "group": "cosmos-2251-debris",
        "lat": -55.264699536879554,
        "lon": 127.0511132111696,
        "alt_km": 1148.115033654567,
        "timestamp": "2025-12-27T20:30:59.674009+00:00",
        "meta_object_name": "COSMOS 2251 DEB",
        "meta_object_id": "1993-036PN",
        "meta_epoch": "2025-12-27T04:15:40.998240",
        "meta_mean_motion": 13.79636696,
        "meta_eccentricity": 0.02845228,
        "meta_inclination": 74.079,
        "meta_ra_of_asc_node": 283.8723,
        "meta_arg_of_pericenter": 28.3291,
        "meta_mean_anomaly": 89.4114,
        "meta_ephemeris_type": 0,
        "meta_classification_type": "U",
        "meta_norad_cat_id": 34340,
        "meta_element_set_no": 999,
        "meta_rev_at_epoch": 84467,
        "meta_bstar": 0.0020938728,
        "meta_mean_motion_dot": 2.907e-05,
        "meta_mean_motion_ddot": 0,
        "tle_line1": "1 34340U 93036PN  25361.17755785  .00002907  00000+0  20939-2 0  9999",
        "tle_line2": "2 34340  74.0790 283.8723 0284522  28.3291  89.4114 13.79636696844676"
      },
      "geometry": {
        "type": "Point",
        "coordinates": [
          127.0511132111696,
          -55.264699536879554
        ]
      }
    }
  ]
}